[{"OBJECT_NAME":"ONEWEB-0568","OBJECT_ID":"2023-043S","EPOCH":"2025-10-21T23:43:23.539296","MEAN_MOTION":13.1659446,"ECCENTRICITY":0.0001983,"INCLINATION":87.8985,"RA_OF_ASC_NODE":276.2183,"ARG_OF_PERICENTER":78.0982,"MEAN_ANOMALY":282.0372,"EPHEMERIS_TYPE":0,"CLASSIFICATION_TYPE":"U","NORAD_CAT_ID":56062,"ELEMENT_SET_NO":999,"REV_AT_EPOCH":12763,"BSTAR":-0.00015907,"MEAN_MOTION_DOT":-4.8e-7,"MEAN_MOTION_DDOT":0},{"OBJECT_NAME":"ONEWEB-0574","OBJECT_ID":"2023-043T","EPOCH":"2025-10-22T03:02:44.863296","MEAN_MOTION":13.21807497,"ECCENTRICITY":0.0001723,"INCLINATION":87.9166,"RA_OF_ASC_NODE":291.4625,"ARG_OF_PERICENTER":87.2107,"MEAN_ANOMALY":272.9224,"EPHEMERIS_TYPE":0,"CLASSIFICATION_TYPE":"U","NORAD_CAT_ID":56063,"ELEMENT_SET_NO":999,"REV_AT_EPOCH":12682,"BSTAR":0.00011658,"MEAN_MOTION_DOT":6.1e-7,"MEAN_MOTION_DDOT":0},{"OBJECT_NAME":"ONEWEB-0575","OBJECT_ID":"2023-043U","EPOCH":"2025-10-22T05:02:33.667296","MEAN_MOTION":13.16594751,"ECCENTRICITY":0.0001599,"INCLINATION":87.8981,"RA_OF_ASC_NODE":276.1767,"ARG_OF_PERICENTER":74.7112,"MEAN_ANOMALY":285.4195,"EPHEMERIS_TYPE":0,"CLASSIFICATION_TYPE":"U","NORAD_CAT_ID":56064,"ELEMENT_SET_NO":999,"REV_AT_EPOCH":12765,"BSTAR":-6.896e-5,"MEAN_MOTION_DOT":-1.4e-7,"MEAN_MOTION_DDOT":0},{"OBJECT_NAME":"ONEWEB-0576","OBJECT_ID":"2023-043V","EPOCH":"2025-10-22T04:35:13.295040","MEAN_MOTION":13.1659405,"ECCENTRICITY":0.0001873,"INCLINATION":87.8987,"RA_OF_ASC_NODE":276.1787,"ARG_OF_PERICENTER":79.9692,"MEAN_ANOMALY":280.165,"EPHEMERIS_TYPE":0,"CLASSIFICATION_TYPE":"U","NORAD_CAT_ID":56065,"ELEMENT_SET_NO":999,"REV_AT_EPOCH":12764,"BSTAR":4.1925e-5,"MEAN_MOTION_DOT":2.9e-7,"MEAN_MOTION_DDOT":0},{"OBJECT_NAME":"ONEWEB-0577","OBJECT_ID":"2023-043W","EPOCH":"2025-10-22T04:44:20.340096","MEAN_MOTION":13.16593953,"ECCENTRICITY":0.0001386,"INCLINATION":87.8985,"RA_OF_ASC_NODE":276.1776,"ARG_OF_PERICENTER":68.9328,"MEAN_ANOMALY":291.1951,"EPHEMERIS_TYPE":0,"CLASSIFICATION_TYPE":"U","NORAD_CAT_ID":56066,"ELEMENT_SET_NO":999,"REV_AT_EPOCH":12767,"BSTAR":5.2374e-5,"MEAN_MOTION_DOT":3.3e-7,"MEAN_MOTION_DDOT":0},{"OBJECT_NAME":"ONEWEB-0578","OBJECT_ID":"2023-043X","EPOCH":"2025-10-22T02:43:49.658016","MEAN_MOTION":13.21856221,"ECCENTRICITY":0.0001972,"INCLINATION":87.9169,"RA_OF_ASC_NODE":291.474,"ARG_OF_PERICENTER":82.2595,"MEAN_ANOMALY":277.8763,"EPHEMERIS_TYPE":0,"CLASSIFICATION_TYPE":"U","NORAD_CAT_ID":56067,"ELEMENT_SET_NO":999,"REV_AT_EPOCH":12678,"BSTAR":0.00017437,"MEAN_MOTION_DOT":8.5e-7,"MEAN_MOTION_DDOT":0},{"OBJECT_NAME":"ONEWEB-0579","OBJECT_ID":"2023-043Y","EPOCH":"2025-10-22T02:29:37.521600","MEAN_MOTION":13.21893739,"ECCENTRICITY":0.0001843,"INCLINATION":87.9169,"RA_OF_ASC_NODE":291.4634,"ARG_OF_PERICENTER":97.5004,"MEAN_ANOMALY":262.6339,"EPHEMERIS_TYPE":0,"CLASSIFICATION_TYPE":"U","NORAD_CAT_ID":56068,"ELEMENT_SET_NO":999,"REV_AT_EPOCH":12679,"BSTAR":0.00016336,"MEAN_MOTION_DOT":8.1e-7,"MEAN_MOTION_DDOT":0},{"OBJECT_NAME":"ONEWEB-0581","OBJECT_ID":"2023-043Z","EPOCH":"2025-10-22T04:53:27.246048","MEAN_MOTION":13.16594759,"ECCENTRICITY":0.0001431,"INCLINATION":87.8981,"RA_OF_ASC_NODE":276.1917,"ARG_OF_PERICENTER":83.9812,"MEAN_ANOMALY":276.1482,"EPHEMERIS_TYPE":0,"CLASSIFICATION_TYPE":"U","NORAD_CAT_ID":56069,"ELEMENT_SET_NO":999,"REV_AT_EPOCH":12764,"BSTAR":-5.3286e-5,"MEAN_MOTION_DOT":-8.0e-8,"MEAN_MOTION_DDOT":0},{"OBJECT_NAME":"ONEWEB-0609","OBJECT_ID":"2023-043AA","EPOCH":"2025-10-22T02:59:01.241088","MEAN_MOTION":13.15548895,"ECCENTRICITY":0.0001919,"INCLINATION":87.8971,"RA_OF_ASC_NODE":306.7275,"ARG_OF_PERICENTER":92.9819,"MEAN_ANOMALY":267.1531,"EPHEMERIS_TYPE":0,"CLASSIFICATION_TYPE":"U","NORAD_CAT_ID":56070,"ELEMENT_SET_NO":999,"REV_AT_EPOCH":12513,"BSTAR":-4.7615e-5,"MEAN_MOTION_DOT":-5.0e-8,"MEAN_MOTION_DDOT":0},{"OBJECT_NAME":"ONEWEB-0613","OBJECT_ID":"2023-043AB","EPOCH":"2025-10-22T02:52:10.295904","MEAN_MOTION":13.15551347,"ECCENTRICITY":0.000192,"INCLINATION":87.8969,"RA_OF_ASC_NODE":306.7419,"ARG_OF_PERICENTER":100.517,"MEAN_ANOMALY":259.6177,"EPHEMERIS_TYPE":0,"CLASSIFICATION_TYPE":"U","NORAD_CAT_ID":56071,"ELEMENT_SET_NO":999,"REV_AT_EPOCH":12513,"BSTAR":6.476e-5,"MEAN_MOTION_DOT":3.7e-7,"MEAN_MOTION_DDOT":0},{"OBJECT_NAME":"ONEWEB-0630","OBJECT_ID":"2023-043AC","EPOCH":"2025-10-22T02:45:20.625120","MEAN_MOTION":13.15548086,"ECCENTRICITY":0.0001936,"INCLINATION":87.8967,"RA_OF_ASC_NODE":306.715,"ARG_OF_PERICENTER":101.5364,"MEAN_ANOMALY":258.5984,"EPHEMERIS_TYPE":0,"CLASSIFICATION_TYPE":"U","NORAD_CAT_ID":56072,"ELEMENT_SET_NO":999,"REV_AT_EPOCH":12512,"BSTAR":0.00012843,"MEAN_MOTION_DOT":6.1e-7,"MEAN_MOTION_DDOT":0},{"OBJECT_NAME":"ONEWEB-0632","OBJECT_ID":"2023-043AD","EPOCH":"2025-10-22T02:38:30.163776","MEAN_MOTION":13.15548434,"ECCENTRICITY":0.0001627,"INCLINATION":87.8964,"RA_OF_ASC_NODE":306.7352,"ARG_OF_PERICENTER":93.8494,"MEAN_ANOMALY":266.2823,"EPHEMERIS_TYPE":0,"CLASSIFICATION_TYPE":"U","NORAD_CAT_ID":56073,"ELEMENT_SET_NO":999,"REV_AT_EPOCH":12512,"BSTAR":0.00020391,"MEAN_MOTION_DOT":9.0e-7,"MEAN_MOTION_DDOT":0},{"OBJECT_NAME":"ONEWEB-0633","OBJECT_ID":"2023-043AE","EPOCH":"2025-10-22T02:29:22.075872","MEAN_MOTION":13.15547953,"ECCENTRICITY":0.0002144,"INCLINATION":87.8963,"RA_OF_ASC_NODE":306.6999,"ARG_OF_PERICENTER":102.0797,"MEAN_ANOMALY":258.0574,"EPHEMERIS_TYPE":0,"CLASSIFICATION_TYPE":"U","NORAD_CAT_ID":56074,"ELEMENT_SET_NO":999,"REV_AT_EPOCH":12510,"BSTAR":0.00027197,"MEAN_MOTION_DOT":1.15e-6,"MEAN_MOTION_DDOT":0},{"OBJECT_NAME":"ONEWEB-0634","OBJECT_ID":"2023-043AF","EPOCH":"2025-10-22T03:58:23.449152","MEAN_MOTION":13.15526398,"ECCENTRICITY":0.0002076,"INCLINATION":87.8968,"RA_OF_ASC_NODE":306.7341,"ARG_OF_PERICENTER":91.7273,"MEAN_ANOMALY":268.4095,"EPHEMERIS_TYPE":0,"CLASSIFICATION_TYPE":"U","NORAD_CAT_ID":56075,"ELEMENT_SET_NO":999,"REV_AT_EPOCH":12510,"BSTAR":-0.0071916,"MEAN_MOTION_DOT":-2.693e-5,"MEAN_MOTION_DDOT":0},{"OBJECT_NAME":"ONEWEB-0635","OBJECT_ID":"2023-043AG","EPOCH":"2025-10-22T03:51:29.289024","MEAN_MOTION":13.15549199,"ECCENTRICITY":0.0001547,"INCLINATION":87.8962,"RA_OF_ASC_NODE":306.6919,"ARG_OF_PERICENTER":91.9687,"MEAN_ANOMALY":268.162,"EPHEMERIS_TYPE":0,"CLASSIFICATION_TYPE":"U","NORAD_CAT_ID":56076,"ELEMENT_SET_NO":999,"REV_AT_EPOCH":12513,"BSTAR":-0.00060421,"MEAN_MOTION_DOT":-2.15e-6,"MEAN_MOTION_DDOT":0},{"OBJECT_NAME":"ONEWEB-0636","OBJECT_ID":"2023-043AH","EPOCH":"2025-10-22T03:40:06.276288","MEAN_MOTION":13.1554808,"ECCENTRICITY":0.0001626,"INCLINATION":87.896,"RA_OF_ASC_NODE":306.7118,"ARG_OF_PERICENTER":91.4814,"MEAN_ANOMALY":268.6502,"EPHEMERIS_TYPE":0,"CLASSIFICATION_TYPE":"U","NORAD_CAT_ID":56077,"ELEMENT_SET_NO":999,"REV_AT_EPOCH":12511,"BSTAR":-0.00015312,"MEAN_MOTION_DOT":-4.5e-7,"MEAN_MOTION_DDOT":0},{"OBJECT_NAME":"ONEWEB-0637","OBJECT_ID":"2023-043AJ","EPOCH":"2025-10-22T03:30:56.805984","MEAN_MOTION":13.15546865,"ECCENTRICITY":0.0001804,"INCLINATION":87.8964,"RA_OF_ASC_NODE":306.7274,"ARG_OF_PERICENTER":82.6792,"MEAN_ANOMALY":277.4543,"EPHEMERIS_TYPE":0,"CLASSIFICATION_TYPE":"U","NORAD_CAT_ID":56078,"ELEMENT_SET_NO":999,"REV_AT_EPOCH":12513,"BSTAR":-0.00094271,"MEAN_MOTION_DOT":-3.42e-6,"MEAN_MOTION_DDOT":0}]
