ONEWEB-0568             
1 56062U 23043S   25294.98846689 -.00000048  00000+0 -15907-3 0  9999
2 56062  87.8985 276.2183 0001983  78.0982 282.0372 13.16594460127632
ONEWEB-0574             
1 56063U 23043T   25295.12690814  .00000061  00000+0  11658-3 0  9996
2 56063  87.9166 291.4625 0001723  87.2107 272.9224 13.21807497126825
ONEWEB-0575             
1 56064U 23043U   25295.21011189 -.00000014  00000+0 -68960-4 0  9998
2 56064  87.8981 276.1767 0001599  74.7112 285.4195 13.16594751127653
ONEWEB-0576             
1 56065U 23043V   25295.19112610  .00000029  00000+0  41925-4 0  9993
2 56065  87.8987 276.1787 0001873  79.9692 280.1650 13.16594050127646
ONEWEB-0577             
1 56066U 23043W   25295.19745764  .00000033  00000+0  52374-4 0  9991
2 56066  87.8985 276.1776 0001386  68.9328 291.1951 13.16593953127676
ONEWEB-0578             
1 56067U 23043X   25295.11376919  .00000085  00000+0  17437-3 0  9993
2 56067  87.9169 291.4740 0001972  82.2595 277.8763 13.21856221126788
ONEWEB-0579             
1 56068U 23043Y   25295.10390650  .00000081  00000+0  16336-3 0  9994
2 56068  87.9169 291.4634 0001843  97.5004 262.6339 13.21893739126799
ONEWEB-0581             
1 56069U 23043Z   25295.20378757 -.00000008  00000+0 -53286-4 0  9997
2 56069  87.8981 276.1917 0001431  83.9812 276.1482 13.16594759127642
ONEWEB-0609             
1 56070U 23043AA  25295.12431992 -.00000005  00000+0 -47615-4 0  9997
2 56070  87.8971 306.7275 0001919  92.9819 267.1531 13.15548895125134
ONEWEB-0613             
1 56071U 23043AB  25295.11956361  .00000037  00000+0  64760-4 0  9992
2 56071  87.8969 306.7419 0001920 100.5170 259.6177 13.15551347125138
ONEWEB-0630             
1 56072U 23043AC  25295.11482205  .00000061  00000+0  12843-3 0  9995
2 56072  87.8967 306.7150 0001936 101.5364 258.5984 13.15548086125121
ONEWEB-0632             
1 56073U 23043AD  25295.11007134  .00000090  00000+0  20391-3 0  9999
2 56073  87.8964 306.7352 0001627  93.8494 266.2823 13.15548434125122
ONEWEB-0633             
1 56074U 23043AE  25295.10372773  .00000115  00000+0  27197-3 0  9992
2 56074  87.8963 306.6999 0002144 102.0797 258.0574 13.15547953125107
ONEWEB-0634             
1 56075U 23043AF  25295.16554918 -.00002693  00000+0 -71916-2 0  9994
2 56075  87.8968 306.7341 0002076  91.7273 268.4095 13.15526398125105
ONEWEB-0635             
1 56076U 23043AG  25295.16075566 -.00000215  00000+0 -60421-3 0  9990
2 56076  87.8962 306.6919 0001547  91.9687 268.1620 13.15549199125131
ONEWEB-0636             
1 56077U 23043AH  25295.15285042 -.00000045  00000+0 -15312-3 0  9992
2 56077  87.8960 306.7118 0001626  91.4814 268.6502 13.15548080125117
ONEWEB-0637             
1 56078U 23043AJ  25295.14649081 -.00000342  00000+0 -94271-3 0  9990
2 56078  87.8964 306.7274 0001804  82.6792 277.4543 13.15546865125134
